start=new Date('2022-05-10T00:00:00.000Z').valueOf();
sats=[{"OBJECT_ID":"2020-019W","EPOCH":"2022-05-09T21:24:37.823616","COUNTRY_CODE":"US","REF_FRAME":"TEME","OBJECT_NAME":"STARLINK-1207","SITE":"AFETR","LAUNCH_DATE":"2020-03-18","TLE_LINE2":"2 45380  53.0561 310.5480 0001505  82.5977 277.5182 15.06385059119029","CLASSIFICATION_TYPE":"U","MEAN_ELEMENT_THEORY":"SGP4","GP_ID":"203139006","MEAN_MOTION_DOT":"0.00004249","RCS_SIZE":"LARGE","PERIOD":"95.593","ELEMENT_SET_NO":"999","MEAN_MOTION":"15.06385059","ARG_OF_PERICENTER":"82.5977","OBJECT_TYPE":"PAYLOAD","DECAY_DATE":null,"BSTAR":"0.00030408000000","PERIAPSIS":"546.217","SEMIMAJOR_AXIS":"6925.394","MEAN_MOTION_DDOT":"0.0000000000000","INCLINATION":"53.0561","ECCENTRICITY":"0.00015050","CENTER_NAME":"EARTH","MEAN_ANOMALY":"277.5182","TIME_SYSTEM":"UTC","EPHEMERIS_TYPE":"0","TLE_LINE1":"1 45380U 20019W   22129.89210444  .00004249  00000-0  30408-3 0  9997","RA_OF_ASC_NODE":"310.5480","REV_AT_EPOCH":"11902","APOAPSIS":"548.302","NORAD_CAT_ID":"45380","FILE":"3438010"},{"TLE_LINE2":"2 45381  53.0570 310.5008 0001319  91.3891 268.7249 15.06395544119028","OBJECT_NAME":"STARLINK-1258","SITE":"AFETR","LAUNCH_DATE":"2020-03-18","REF_FRAME":"TEME","COUNTRY_CODE":"US","EPOCH":"2022-05-09T21:40:32.813184","OBJECT_ID":"2020-019X","OBJECT_TYPE":"PAYLOAD","DECAY_DATE":null,"MEAN_MOTION":"15.06395544","ARG_OF_PERICENTER":"91.3891","ELEMENT_SET_NO":"999","PERIOD":"95.592","MEAN_MOTION_DOT":"-0.00000133","RCS_SIZE":"LARGE","GP_ID":"203139760","MEAN_ELEMENT_THEORY":"SGP4","CLASSIFICATION_TYPE":"U","ECCENTRICITY":"0.00013190","INCLINATION":"53.0570","MEAN_MOTION_DDOT":"0.0000000000000","SEMIMAJOR_AXIS":"6925.362","PERIAPSIS":"546.314","BSTAR":"0.00000997860000","FILE":"3438010","APOAPSIS":"548.141","NORAD_CAT_ID":"45381","REV_AT_EPOCH":"11902","RA_OF_ASC_NODE":"310.5008","TLE_LINE1":"1 45381U 20019X   22129.90315756 -.00000133  00000-0  99786-5 0  9997","EPHEMERIS_TYPE":"0","TIME_SYSTEM":"UTC","MEAN_ANOMALY":"268.7249","CENTER_NAME":"EARTH"},{"EPHEMERIS_TYPE":"0","TIME_SYSTEM":"UTC","MEAN_ANOMALY":"280.9291","CENTER_NAME":"EARTH","RA_OF_ASC_NODE":"310.6155","TLE_LINE1":"1 45382U 20019Y   22129.88104324 -.00000083  00000-0  13316-4 0  9990","NORAD_CAT_ID":"45382","APOAPSIS":"548.287","REV_AT_EPOCH":"11884","FILE":"3438010","PERIAPSIS":"546.191","SEMIMAJOR_AXIS":"6925.374","BSTAR":"0.00001331600000","MEAN_MOTION_DDOT":"0.0000000000000","INCLINATION":"53.0543","ECCENTRICITY":"0.00015130","GP_ID":"203140497","MEAN_ELEMENT_THEORY":"SGP4","CLASSIFICATION_TYPE":"U","PERIOD":"95.593","MEAN_MOTION_DOT":"-0.00000083","RCS_SIZE":"LARGE","ARG_OF_PERICENTER":"79.1868","MEAN_MOTION":"15.06391791","ELEMENT_SET_NO":"999","DECAY_DATE":null,"OBJECT_TYPE":"PAYLOAD","OBJECT_ID":"2020-019Y","COUNTRY_CODE":"US","EPOCH":"2022-05-09T21:08:42.135936","TLE_LINE2":"2 45382  53.0543 310.6155 0001513  79.1868 280.9291 15.06391791118849","SITE":"AFETR","OBJECT_NAME":"STARLINK-1264","LAUNCH_DATE":"2020-03-18","REF_FRAME":"TEME"},{"FILE":"3438010","APOAPSIS":"548.229","NORAD_CAT_ID":"45383","REV_AT_EPOCH":"11902","RA_OF_ASC_NODE":"310.5428","TLE_LINE1":"1 45383U 20019Z   22129.89577236  .00002049  00000-0  15642-3 0  9994","TIME_SYSTEM":"UTC","EPHEMERIS_TYPE":"0","CENTER_NAME":"EARTH","MEAN_ANOMALY":"272.7633","ECCENTRICITY":"0.00014830","INCLINATION":"53.0565","MEAN_MOTION_DDOT":"0.0000000000000","SEMIMAJOR_AXIS":"6925.337","PERIAPSIS":"546.175","BSTAR":"0.00015642000000","DECAY_DATE":null,"OBJECT_TYPE":"PAYLOAD","ELEMENT_SET_NO":"999","MEAN_MOTION":"15.06403810","ARG_OF_PERICENTER":"87.3526","PERIOD":"95.592","RCS_SIZE":"LARGE","MEAN_MOTION_DOT":"0.00002049","GP_ID":"203139259","CLASSIFICATION_TYPE":"U","MEAN_ELEMENT_THEORY":"SGP4","TLE_LINE2":"2 45383  53.0565 310.5428 0001483  87.3526 272.7633 15.06403810119020","REF_FRAME":"TEME","SITE":"AFETR","OBJECT_NAME":"STARLINK-1266","LAUNCH_DATE":"2020-03-18","EPOCH":"2022-05-09T21:29:54.731904","COUNTRY_CODE":"US","OBJECT_ID":"2020-019Z"},{"COUNTRY_CODE":"US","EPOCH":"2022-05-09T21:12:38.097792","OBJECT_ID":"2020-019AA","SITE":"AFETR","LAUNCH_DATE":"2020-03-18","OBJECT_NAME":"STARLINK-1267","REF_FRAME":"TEME","TLE_LINE2":"2 45384  53.0555 310.5842 0001279  74.6920 285.4210 15.06400567119028","MEAN_MOTION_DOT":"0.00001113","RCS_SIZE":"LARGE","PERIOD":"95.592","MEAN_ELEMENT_THEORY":"SGP4","CLASSIFICATION_TYPE":"U","GP_ID":"203139506","OBJECT_TYPE":"PAYLOAD","DECAY_DATE":null,"ARG_OF_PERICENTER":"74.6920","MEAN_MOTION":"15.06400567","ELEMENT_SET_NO":"999","MEAN_MOTION_DDOT":"0.0000000000000","BSTAR":"0.00009360200000","PERIAPSIS":"546.326","SEMIMAJOR_AXIS":"6925.347","ECCENTRICITY":"0.00012790","INCLINATION":"53.0555","TLE_LINE1":"1 45384U 20019AA  22129.88377428  .00001113  00000-0  93602-4 0  9999","RA_OF_ASC_NODE":"310.5842","MEAN_ANOMALY":"285.4210","CENTER_NAME":"EARTH","EPHEMERIS_TYPE":"0","TIME_SYSTEM":"UTC","FILE":"3438010","REV_AT_EPOCH":"11902","NORAD_CAT_ID":"45384","APOAPSIS":"548.098"},{"MEAN_MOTION_DDOT":"0.0000000000000","BSTAR":"0.00031632000000","PERIAPSIS":"546.270","SEMIMAJOR_AXIS":"6925.318","ECCENTRICITY":"0.00013180","INCLINATION":"53.0550","TLE_LINE1":"1 45386U 20019AC  22129.88840586  .00004434  00000-0  31632-3 0  9994","RA_OF_ASC_NODE":"310.5819","MEAN_ANOMALY":"278.7279","CENTER_NAME":"EARTH","EPHEMERIS_TYPE":"0","TIME_SYSTEM":"UTC","FILE":"3438010","REV_AT_EPOCH":"11902","APOAPSIS":"548.096","NORAD_CAT_ID":"45386","COUNTRY_CODE":"US","EPOCH":"2022-05-09T21:19:18.266304","OBJECT_ID":"2020-019AC","OBJECT_NAME":"STARLINK-1272","SITE":"AFETR","LAUNCH_DATE":"2020-03-18","REF_FRAME":"TEME","TLE_LINE2":"2 45386  53.0550 310.5819 0001318  81.3859 278.7279 15.06410014119027","RCS_SIZE":"LARGE","MEAN_MOTION_DOT":"0.00004434","PERIOD":"95.592","MEAN_ELEMENT_THEORY":"SGP4","CLASSIFICATION_TYPE":"U","GP_ID":"203140260","DECAY_DATE":null,"OBJECT_TYPE":"PAYLOAD","ARG_OF_PERICENTER":"81.3859","MEAN_MOTION":"15.06410014","ELEMENT_SET_NO":"999"},{"INCLINATION":"53.0553","ECCENTRICITY":"0.00014120","PERIAPSIS":"546.250","SEMIMAJOR_AXIS":"6925.363","BSTAR":"0.00006858500000","MEAN_MOTION_DDOT":"0.0000000000000","NORAD_CAT_ID":"45387","APOAPSIS":"548.205","REV_AT_EPOCH":"11901","FILE":"3438010","TIME_SYSTEM":"UTC","EPHEMERIS_TYPE":"0","CENTER_NAME":"EARTH","MEAN_ANOMALY":"283.1567","RA_OF_ASC_NODE":"310.7680","TLE_LINE1":"1 45387U 20019AD  22129.84418682  .00000740  00000-0  68585-4 0  9993","TLE_LINE2":"2 45387  53.0553 310.7680 0001412  76.9580 283.1567 15.06395423119010","REF_FRAME":"TEME","LAUNCH_DATE":"2020-03-18","SITE":"AFETR","OBJECT_NAME":"STARLINK-1274","OBJECT_ID":"2020-019AD","EPOCH":"2022-05-09T20:15:37.741248","COUNTRY_CODE":"US","ELEMENT_SET_NO":"999","MEAN_MOTION":"15.06395423","ARG_OF_PERICENTER":"76.9580","DECAY_DATE":null,"OBJECT_TYPE":"PAYLOAD","GP_ID":"203139998","CLASSIFICATION_TYPE":"U","MEAN_ELEMENT_THEORY":"SGP4","PERIOD":"95.592","MEAN_MOTION_DOT":"0.00000740","RCS_SIZE":"LARGE"},{"REV_AT_EPOCH":"11873","APOAPSIS":"548.223","NORAD_CAT_ID":"45388","FILE":"3438010","CENTER_NAME":"EARTH","MEAN_ANOMALY":"281.6013","TIME_SYSTEM":"UTC","EPHEMERIS_TYPE":"0","TLE_LINE1":"1 45388U 20019AE  22129.87919644  .00001667  00000-0  13078-3 0  9996","RA_OF_ASC_NODE":"330.6072","INCLINATION":"53.0558","ECCENTRICITY":"0.00014710","BSTAR":"0.00013078000000","PERIAPSIS":"546.186","SEMIMAJOR_AXIS":"6925.339","MEAN_MOTION_DDOT":"0.0000000000000","ELEMENT_SET_NO":"999","MEAN_MOTION":"15.06403029","ARG_OF_PERICENTER":"78.5141","OBJECT_TYPE":"PAYLOAD","DECAY_DATE":null,"CLASSIFICATION_TYPE":"U","MEAN_ELEMENT_THEORY":"SGP4","GP_ID":"203138760","RCS_SIZE":"LARGE","MEAN_MOTION_DOT":"0.00001667","PERIOD":"95.592","REF_FRAME":"TEME","SITE":"AFETR","LAUNCH_DATE":"2020-03-18","OBJECT_NAME":"STARLINK-1280","TLE_LINE2":"2 45388  53.0558 330.6072 0001471  78.5141 281.6013 15.06403029118737","OBJECT_ID":"2020-019AE","EPOCH":"2022-05-09T21:06:02.572416","COUNTRY_CODE":"US"},{"EPOCH":"2022-05-09T19:01:18.088608","COUNTRY_CODE":"US","OBJECT_ID":"2020-019AF","REF_FRAME":"TEME","LAUNCH_DATE":"2020-03-18","SITE":"AFETR","OBJECT_NAME":"STARLINK-1283","TLE_LINE2":"2 45389  53.0566 311.0059 0001556  66.3416 293.7736 15.06401771119019","MEAN_MOTION_DOT":"-0.00000238","RCS_SIZE":"LARGE","PERIOD":"95.592","CLASSIFICATION_TYPE":"U","MEAN_ELEMENT_THEORY":"SGP4","GP_ID":"203139007","DECAY_DATE":null,"OBJECT_TYPE":"PAYLOAD","ELEMENT_SET_NO":"999","ARG_OF_PERICENTER":"66.3416","MEAN_MOTION":"15.06401771","MEAN_MOTION_DDOT":"0.0000000000000","BSTAR":"0.00000293390000","PERIAPSIS":"546.131","SEMIMAJOR_AXIS":"6925.343","ECCENTRICITY":"0.00015560","INCLINATION":"53.0566","TLE_LINE1":"1 45389U 20019AF  22129.79257047 -.00000238  00000-0  29339-5 0  9993","RA_OF_ASC_NODE":"311.0059","CENTER_NAME":"EARTH","MEAN_ANOMALY":"293.7736","TIME_SYSTEM":"UTC","EPHEMERIS_TYPE":"0","FILE":"3438010","REV_AT_EPOCH":"11901","APOAPSIS":"548.286","NORAD_CAT_ID":"45389"},{"SEMIMAJOR_AXIS":"6925.338","PERIAPSIS":"546.125","BSTAR":"-0.00001634800000","MEAN_MOTION_DDOT":"0.0000000000000","INCLINATION":"53.0545","ECCENTRICITY":"0.00015570","TIME_SYSTEM":"UTC","EPHEMERIS_TYPE":"0","CENTER_NAME":"EARTH","MEAN_ANOMALY":"299.8094","RA_OF_ASC_NODE":"311.1165","TLE_LINE1":"1 45390U 20019AG  22129.76678161 -.00000525  00000-0 -16348-4 0  9991","NORAD_CAT_ID":"45390","APOAPSIS":"548.281","REV_AT_EPOCH":"11900","FILE":"3438010","OBJECT_ID":"2020-019AG","EPOCH":"2022-05-09T18:24:09.931104","COUNTRY_CODE":"US","TLE_LINE2":"2 45390  53.0545 311.1165 0001557  60.3050 299.8094 15.06403506119007","REF_FRAME":"TEME","LAUNCH_DATE":"2020-03-18","SITE":"AFETR","OBJECT_NAME":"STARLINK-1284","GP_ID":"203139761","CLASSIFICATION_TYPE":"U","MEAN_ELEMENT_THEORY":"SGP4","PERIOD":"95.592","RCS_SIZE":"LARGE","MEAN_MOTION_DOT":"-0.00000525","ELEMENT_SET_NO":"999","ARG_OF_PERICENTER":"60.3050","MEAN_MOTION":"15.06403506","DECAY_DATE":null,"OBJECT_TYPE":"PAYLOAD"}];
